start=new Date('2023-04-25T00:00:00.000Z').valueOf();
sats=[{"TIME_SYSTEM":"UTC","CENTER_NAME":"EARTH","RA_OF_ASC_NODE":"214.3661","SITE":"AFETR","MEAN_ELEMENT_THEORY":"SGP4","PERIAPSIS":"538.713","ARG_OF_PERICENTER":"77.0211","RCS_SIZE":"LARGE","PERIOD":"95.432","EPOCH":"2023-04-24T07:54:11.637504","MEAN_MOTION_DOT":"0.00068266","OBJECT_NAME":"STARLINK-3325","INCLINATION":"53.2145","MEAN_MOTION":"15.08922350","REV_AT_EPOCH":"7169","OBJECT_ID":"2022-001AS","TLE_LINE2":"2 50843  53.2145 214.3661 0001129  77.0211 283.0907 15.08922350 71693","APOAPSIS":"540.275","REF_FRAME":"TEME","MEAN_MOTION_DDOT":"0.0000000000000","GP_ID":"230700532","OBJECT_TYPE":"PAYLOAD","BSTAR":"0.00425660000000","NORAD_CAT_ID":"50843","EPHEMERIS_TYPE":"0","FILE":"3893330","DECAY_DATE":null,"LAUNCH_DATE":"2022-01-06","CLASSIFICATION_TYPE":"U","SEMIMAJOR_AXIS":"6917.629","ELEMENT_SET_NO":"999","COUNTRY_CODE":"US","ECCENTRICITY":"0.00011290","TLE_LINE1":"1 50843U 22001AS  23114.32930136  .00068266  00000-0  42566-2 0  9996","MEAN_ANOMALY":"283.0907"},{"PERIOD":"95.434","RCS_SIZE":"LARGE","INCLINATION":"53.2155","OBJECT_NAME":"STARLINK-3326","MEAN_MOTION":"15.08891590","EPOCH":"2023-04-24T16:38:46.962240","MEAN_MOTION_DOT":"0.00010363","RA_OF_ASC_NODE":"212.7358","SITE":"AFETR","TIME_SYSTEM":"UTC","CENTER_NAME":"EARTH","ARG_OF_PERICENTER":"88.1721","PERIAPSIS":"538.652","MEAN_ELEMENT_THEORY":"SGP4","SEMIMAJOR_AXIS":"6917.723","ELEMENT_SET_NO":"999","CLASSIFICATION_TYPE":"U","LAUNCH_DATE":"2022-01-06","MEAN_ANOMALY":"271.9426","COUNTRY_CODE":"US","ECCENTRICITY":"0.00013520","TLE_LINE1":"1 50844U 22001AT  23114.69359910  .00010363  00000-0  66730-3 0  9997","MEAN_MOTION_DDOT":"0.0000000000000","OBJECT_ID":"2022-001AT","REV_AT_EPOCH":"7303","TLE_LINE2":"2 50844  53.2155 212.7358 0001352  88.1721 271.9426 15.08891590 73030","REF_FRAME":"TEME","APOAPSIS":"540.523","FILE":"3893522","DECAY_DATE":null,"GP_ID":"230706671","OBJECT_TYPE":"PAYLOAD","BSTAR":"0.00066730000000","NORAD_CAT_ID":"50844","EPHEMERIS_TYPE":"0"},{"MEAN_MOTION_DDOT":"0.0000000000000","REV_AT_EPOCH":"7298","OBJECT_ID":"2022-001AU","TLE_LINE2":"2 50845  53.2162 212.8365 0001388  72.0406 288.0738 15.08902218 72987","REF_FRAME":"TEME","APOAPSIS":"540.515","DECAY_DATE":null,"FILE":"3893522","GP_ID":"230707173","OBJECT_TYPE":"PAYLOAD","EPHEMERIS_TYPE":"0","BSTAR":"0.00052297000000","NORAD_CAT_ID":"50845","SEMIMAJOR_AXIS":"6917.690","ELEMENT_SET_NO":"999","LAUNCH_DATE":"2022-01-06","CLASSIFICATION_TYPE":"U","MEAN_ANOMALY":"288.0738","COUNTRY_CODE":"US","ECCENTRICITY":"0.00013880","TLE_LINE1":"1 50845U 22001AU  23114.67149338  .00008059  00000-0  52297-3 0  9999","RA_OF_ASC_NODE":"212.8365","SITE":"AFETR","TIME_SYSTEM":"UTC","CENTER_NAME":"EARTH","ARG_OF_PERICENTER":"72.0406","PERIAPSIS":"538.595","MEAN_ELEMENT_THEORY":"SGP4","PERIOD":"95.434","RCS_SIZE":"LARGE","OBJECT_NAME":"STARLINK-3230","INCLINATION":"53.2162","MEAN_MOTION":"15.08902218","EPOCH":"2023-04-24T16:06:57.028032","MEAN_MOTION_DOT":"0.00008059"},{"DECAY_DATE":null,"FILE":"3893522","EPHEMERIS_TYPE":"0","OBJECT_TYPE":"PAYLOAD","BSTAR":"0.00131260000000","NORAD_CAT_ID":"50846","GP_ID":"230706674","MEAN_MOTION_DDOT":"0.0000000000000","REF_FRAME":"TEME","APOAPSIS":"545.780","REV_AT_EPOCH":"7306","OBJECT_ID":"2022-001AV","TLE_LINE2":"2 50846  53.2151 211.7678 0001225 105.4604  28.2167 15.07144854 73065","MEAN_ANOMALY":"28.2167","ECCENTRICITY":"0.00012250","TLE_LINE1":"1 50846U 22001AV  23114.91668981  .00019720  00000-0  13126-2 0  9991","COUNTRY_CODE":"US","ELEMENT_SET_NO":"999","SEMIMAJOR_AXIS":"6923.067","LAUNCH_DATE":"2022-01-06","CLASSIFICATION_TYPE":"U","PERIAPSIS":"544.084","MEAN_ELEMENT_THEORY":"SGP4","ARG_OF_PERICENTER":"105.4604","SITE":"AFETR","RA_OF_ASC_NODE":"211.7678","CENTER_NAME":"EARTH","TIME_SYSTEM":"UTC","OBJECT_NAME":"STARLINK-3308","INCLINATION":"53.2151","MEAN_MOTION":"15.07144854","MEAN_MOTION_DOT":"0.00019720","EPOCH":"2023-04-24T22:00:01.999584","PERIOD":"95.545","RCS_SIZE":"LARGE"},{"MEAN_MOTION":"15.08833608","OBJECT_NAME":"STARLINK-3319","INCLINATION":"53.2156","MEAN_MOTION_DOT":"-0.00000002","EPOCH":"2023-04-23T17:21:13.603968","PERIOD":"95.438","RCS_SIZE":"LARGE","PERIAPSIS":"538.887","MEAN_ELEMENT_THEORY":"SGP4","ARG_OF_PERICENTER":"72.3770","SITE":"AFETR","RA_OF_ASC_NODE":"217.1000","CENTER_NAME":"EARTH","TIME_SYSTEM":"UTC","MEAN_ANOMALY":"287.7360","TLE_LINE1":"1 50847U 22001AW  23113.72307412 -.00000002  00000-0  17995-4 0  9993","ECCENTRICITY":"0.00012690","COUNTRY_CODE":"US","ELEMENT_SET_NO":"999","SEMIMAJOR_AXIS":"6917.900","LAUNCH_DATE":"2022-01-06","CLASSIFICATION_TYPE":"U","DECAY_DATE":null,"FILE":"3892831","OBJECT_TYPE":"PAYLOAD","NORAD_CAT_ID":"50847","BSTAR":"0.00001799500000","EPHEMERIS_TYPE":"0","GP_ID":"230661842","MEAN_MOTION_DDOT":"0.0000000000000","APOAPSIS":"540.643","REF_FRAME":"TEME","TLE_LINE2":"2 50847  53.2156 217.1000 0001269  72.3770 287.7360 15.08833608 71602","OBJECT_ID":"2022-001AW","REV_AT_EPOCH":"7160"},{"RCS_SIZE":"LARGE","PERIOD":"95.434","MEAN_MOTION_DOT":"0.00011733","EPOCH":"2023-04-24T16:28:10.912224","MEAN_MOTION":"15.08892218","OBJECT_NAME":"STARLINK-3315","INCLINATION":"53.2159","CENTER_NAME":"EARTH","TIME_SYSTEM":"UTC","SITE":"AFETR","RA_OF_ASC_NODE":"212.7707","PERIAPSIS":"538.722","MEAN_ELEMENT_THEORY":"SGP4","ARG_OF_PERICENTER":"89.8144","LAUNCH_DATE":"2022-01-06","CLASSIFICATION_TYPE":"U","ELEMENT_SET_NO":"999","SEMIMAJOR_AXIS":"6917.721","TLE_LINE1":"1 50848U 22001AX  23114.68623741  .00011733  00000-0  75295-3 0  9994","ECCENTRICITY":"0.00012480","COUNTRY_CODE":"US","MEAN_ANOMALY":"270.2991","APOAPSIS":"540.449","REF_FRAME":"TEME","TLE_LINE2":"2 50848  53.2159 212.7707 0001248  89.8144 270.2991 15.08892218 73067","REV_AT_EPOCH":"7306","OBJECT_ID":"2022-001AX","MEAN_MOTION_DDOT":"0.0000000000000","NORAD_CAT_ID":"50848","OBJECT_TYPE":"PAYLOAD","BSTAR":"0.00075295000000","EPHEMERIS_TYPE":"0","GP_ID":"230707178","DECAY_DATE":null,"FILE":"3893532"},{"GP_ID":"230699032","OBJECT_TYPE":"PAYLOAD","BSTAR":"0.00083946000000","NORAD_CAT_ID":"50849","EPHEMERIS_TYPE":"0","FILE":"3893330","DECAY_DATE":null,"REV_AT_EPOCH":"7169","OBJECT_ID":"2022-001AY","TLE_LINE2":"2 50849  53.2161 214.4989 0001359  93.1968 266.9180 15.08876883 71696","REF_FRAME":"TEME","APOAPSIS":"540.573","MEAN_MOTION_DDOT":"0.0000000000000","COUNTRY_CODE":"US","ECCENTRICITY":"0.00013590","TLE_LINE1":"1 50849U 22001AY  23114.29985947  .00013111  00000-0  83946-3 0  9995","MEAN_ANOMALY":"266.9180","CLASSIFICATION_TYPE":"U","LAUNCH_DATE":"2022-01-06","SEMIMAJOR_AXIS":"6917.768","ELEMENT_SET_NO":"999","PERIAPSIS":"538.693","ARG_OF_PERICENTER":"93.1968","MEAN_ELEMENT_THEORY":"SGP4","TIME_SYSTEM":"UTC","CENTER_NAME":"EARTH","RA_OF_ASC_NODE":"214.4989","SITE":"AFETR","EPOCH":"2023-04-24T07:11:47.858208","MEAN_MOTION_DOT":"0.00013111","OBJECT_NAME":"STARLINK-3311","INCLINATION":"53.2161","MEAN_MOTION":"15.08876883","RCS_SIZE":"LARGE","PERIOD":"95.435"},{"TLE_LINE2":"2 50850  53.2153 172.9960 0001340  94.0557 266.0588 15.08910988 73588","REV_AT_EPOCH":"7358","OBJECT_ID":"2022-001AZ","APOAPSIS":"540.455","REF_FRAME":"TEME","MEAN_MOTION_DDOT":"0.0000000000000","GP_ID":"230706675","NORAD_CAT_ID":"50850","OBJECT_TYPE":"PAYLOAD","BSTAR":"0.00140590000000","EPHEMERIS_TYPE":"0","FILE":"3893532","DECAY_DATE":null,"LAUNCH_DATE":"2022-01-06","CLASSIFICATION_TYPE":"U","SEMIMAJOR_AXIS":"6917.663","ELEMENT_SET_NO":"999","COUNTRY_CODE":"US","TLE_LINE1":"1 50850U 22001AZ  23114.63472310  .00022201  00000-0  14059-2 0  9998","ECCENTRICITY":"0.00013400","MEAN_ANOMALY":"266.0588","TIME_SYSTEM":"UTC","CENTER_NAME":"EARTH","RA_OF_ASC_NODE":"172.9960","SITE":"AFETR","ARG_OF_PERICENTER":"94.0557","PERIAPSIS":"538.601","MEAN_ELEMENT_THEORY":"SGP4","RCS_SIZE":"LARGE","PERIOD":"95.433","EPOCH":"2023-04-24T15:14:00.075840","MEAN_MOTION_DOT":"0.00022201","MEAN_MOTION":"15.08910988","INCLINATION":"53.2153","OBJECT_NAME":"STARLINK-3312"},{"ELEMENT_SET_NO":"999","SEMIMAJOR_AXIS":"6917.540","LAUNCH_DATE":"2022-01-06","CLASSIFICATION_TYPE":"U","MEAN_ANOMALY":"296.2246","TLE_LINE1":"1 50851U 22001BA  23114.68352707  .00063997  00000-0  39907-2 0  9997","ECCENTRICITY":"0.00019900","COUNTRY_CODE":"US","MEAN_MOTION_DDOT":"0.0000000000000","REF_FRAME":"TEME","APOAPSIS":"540.782","TLE_LINE2":"2 50851  53.2155 212.7923 0001990  63.8951 296.2246 15.08951281 73033","REV_AT_EPOCH":"7303","OBJECT_ID":"2022-001BA","FILE":"3893532","DECAY_DATE":null,"EPHEMERIS_TYPE":"0","OBJECT_TYPE":"PAYLOAD","BSTAR":"0.00399070000000","NORAD_CAT_ID":"50851","GP_ID":"230707182","PERIOD":"95.431","RCS_SIZE":"LARGE","MEAN_MOTION":"15.08951281","OBJECT_NAME":"STARLINK-3314","INCLINATION":"53.2155","MEAN_MOTION_DOT":"0.00063997","EPOCH":"2023-04-24T16:24:16.738848","SITE":"AFETR","RA_OF_ASC_NODE":"212.7923","CENTER_NAME":"EARTH","TIME_SYSTEM":"UTC","PERIAPSIS":"538.029","MEAN_ELEMENT_THEORY":"SGP4","ARG_OF_PERICENTER":"63.8951"},{"MEAN_MOTION":"15.08874100","INCLINATION":"53.2164","OBJECT_NAME":"STARLINK-3366","MEAN_MOTION_DOT":"0.00012046","EPOCH":"2023-04-24T13:39:57.721248","PERIOD":"95.435","RCS_SIZE":"LARGE","PERIAPSIS":"539.025","ARG_OF_PERICENTER":"77.7320","MEAN_ELEMENT_THEORY":"SGP4","SITE":"AFETR","RA_OF_ASC_NODE":"323.2917","CENTER_NAME":"EARTH","TIME_SYSTEM":"UTC","MEAN_ANOMALY":"282.3772","TLE_LINE1":"1 51104U 22005A   23114.56941807  .00012046  00000-0  77292-3 0  9994","ECCENTRICITY":"0.00008900","COUNTRY_CODE":"US","ELEMENT_SET_NO":"999","SEMIMAJOR_AXIS":"6917.776","LAUNCH_DATE":"2022-01-19","CLASSIFICATION_TYPE":"U","FILE":"3893330","DECAY_DATE":null,"NORAD_CAT_ID":"51104","OBJECT_TYPE":"PAYLOAD","BSTAR":"0.00077292000000","EPHEMERIS_TYPE":"0","GP_ID":"230699547","MEAN_MOTION_DDOT":"0.0000000000000","APOAPSIS":"540.257","REF_FRAME":"TEME","TLE_LINE2":"2 51104  53.2164 323.2917 0000890  77.7320 282.3772 15.08874100 70343","REV_AT_EPOCH":"7034","OBJECT_ID":"2022-005A"}];
